start=new Date('2022-05-14T00:00:00.000Z').valueOf();
sats=[{"BSTAR":"0.00091630000000","ECCENTRICITY":"0.00018750","NORAD_CAT_ID":"46031","PERIAPSIS":"546.095","OBJECT_ID":"2020-055E","OBJECT_NAME":"STARLINK-1544","MEAN_MOTION":"15.06341266","SITE":"AFETR","GP_ID":"203476589","PERIOD":"95.596","MEAN_MOTION_DDOT":"0.0000000000000","COUNTRY_CODE":"US","OBJECT_TYPE":"PAYLOAD","ELEMENT_SET_NO":"999","REV_AT_EPOCH":"9848","CLASSIFICATION_TYPE":"U","DECAY_DATE":null,"RCS_SIZE":"LARGE","SEMIMAJOR_AXIS":"6925.529","INCLINATION":"53.0550","EPOCH":"2022-05-13T18:52:16.040064","MEAN_ANOMALY":"284.6403","MEAN_MOTION_DOT":"0.00013371","CENTER_NAME":"EARTH","TLE_LINE2":"2 46031  53.0550 273.0705 0001875  75.4793 284.6403 15.06341266 98484","MEAN_ELEMENT_THEORY":"SGP4","RA_OF_ASC_NODE":"273.0705","REF_FRAME":"TEME","LAUNCH_DATE":"2020-08-07","TIME_SYSTEM":"UTC","FILE":"3444395","TLE_LINE1":"1 46031U 20055E   22133.78629676  .00013371  00000-0  91630-3 0  9995","ARG_OF_PERICENTER":"75.4793","EPHEMERIS_TYPE":"0","APOAPSIS":"548.692"},{"CENTER_NAME":"EARTH","MEAN_MOTION_DOT":"0.00002786","TLE_LINE2":"2 46032  53.0558 273.2357 0001582  53.6181 306.4953 15.06407110 98497","MEAN_ELEMENT_THEORY":"SGP4","RA_OF_ASC_NODE":"273.2357","TIME_SYSTEM":"UTC","LAUNCH_DATE":"2020-08-07","REF_FRAME":"TEME","TLE_LINE1":"1 46032U 20055F   22133.74942555  .00002786  00000-0  20582-3 0  9992","ARG_OF_PERICENTER":"53.6181","EPHEMERIS_TYPE":"0","FILE":"3444395","APOAPSIS":"548.287","BSTAR":"0.00020582000000","ECCENTRICITY":"0.00015820","NORAD_CAT_ID":"46032","PERIAPSIS":"546.096","MEAN_MOTION":"15.06407110","OBJECT_NAME":"STARLINK-1555","OBJECT_ID":"2020-055F","COUNTRY_CODE":"US","MEAN_MOTION_DDOT":"0.0000000000000","GP_ID":"203475337","PERIOD":"95.592","SITE":"AFETR","DECAY_DATE":null,"CLASSIFICATION_TYPE":"U","ELEMENT_SET_NO":"999","OBJECT_TYPE":"PAYLOAD","REV_AT_EPOCH":"9849","RCS_SIZE":"LARGE","MEAN_ANOMALY":"306.4953","EPOCH":"2022-05-13T17:59:10.367520","INCLINATION":"53.0558","SEMIMAJOR_AXIS":"6925.327"},{"PERIAPSIS":"546.121","OBJECT_NAME":"STARLINK-1556","OBJECT_ID":"2020-055G","MEAN_MOTION":"15.06403711","BSTAR":"0.00009861100000","NORAD_CAT_ID":"46033","ECCENTRICITY":"0.00015610","RCS_SIZE":"LARGE","SEMIMAJOR_AXIS":"6925.337","INCLINATION":"53.0553","EPOCH":"2022-05-13T20:43:42.820320","MEAN_ANOMALY":"279.7217","SITE":"AFETR","GP_ID":"203475587","PERIOD":"95.592","COUNTRY_CODE":"US","MEAN_MOTION_DDOT":"0.0000000000000","REV_AT_EPOCH":"9848","OBJECT_TYPE":"PAYLOAD","ELEMENT_SET_NO":"999","CLASSIFICATION_TYPE":"U","DECAY_DATE":null,"MEAN_ELEMENT_THEORY":"SGP4","MEAN_MOTION_DOT":"0.00001188","CENTER_NAME":"EARTH","TLE_LINE2":"2 46033  53.0553 272.7318 0001561  80.3948 279.7217 15.06403711 98486","FILE":"3444395","EPHEMERIS_TYPE":"0","TLE_LINE1":"1 46033U 20055G   22133.86369005  .00001188  00000-0  98611-4 0  9993","ARG_OF_PERICENTER":"80.3948","APOAPSIS":"548.283","RA_OF_ASC_NODE":"272.7318","REF_FRAME":"TEME","TIME_SYSTEM":"UTC","LAUNCH_DATE":"2020-08-07"},{"MEAN_MOTION_DOT":"0.00000541","CENTER_NAME":"EARTH","TLE_LINE2":"2 46034  53.0538 272.7177 0001334  74.0240 286.0896 15.06410504 98488","MEAN_ELEMENT_THEORY":"SGP4","RA_OF_ASC_NODE":"272.7177","REF_FRAME":"TEME","TIME_SYSTEM":"UTC","LAUNCH_DATE":"2020-08-07","FILE":"3444395","EPHEMERIS_TYPE":"0","TLE_LINE1":"1 46034U 20055H   22133.86737165  .00000541  00000-0  55211-4 0  9991","ARG_OF_PERICENTER":"74.0240","APOAPSIS":"548.105","BSTAR":"0.00005521100000","NORAD_CAT_ID":"46034","ECCENTRICITY":"0.00013340","PERIAPSIS":"546.258","OBJECT_ID":"2020-055H","OBJECT_NAME":"STARLINK-1557","MEAN_MOTION":"15.06410504","SITE":"AFETR","GP_ID":"203475839","PERIOD":"95.591","COUNTRY_CODE":"US","MEAN_MOTION_DDOT":"0.0000000000000","OBJECT_TYPE":"PAYLOAD","ELEMENT_SET_NO":"999","REV_AT_EPOCH":"9848","CLASSIFICATION_TYPE":"U","DECAY_DATE":null,"RCS_SIZE":"LARGE","SEMIMAJOR_AXIS":"6925.316","INCLINATION":"53.0538","EPOCH":"2022-05-13T20:49:00.910560","MEAN_ANOMALY":"286.0896"},{"MEAN_ELEMENT_THEORY":"SGP4","CENTER_NAME":"EARTH","MEAN_MOTION_DOT":"0.00001061","TLE_LINE2":"2 46035  53.0546 272.6633 0001290  61.9254 298.1865 15.06397874 98513","ARG_OF_PERICENTER":"61.9254","TLE_LINE1":"1 46035U 20055J   22133.87474882  .00001061  00000-0  90103-4 0  9994","EPHEMERIS_TYPE":"0","FILE":"3444395","APOAPSIS":"548.113","RA_OF_ASC_NODE":"272.6633","LAUNCH_DATE":"2020-08-07","TIME_SYSTEM":"UTC","REF_FRAME":"TEME","PERIAPSIS":"546.327","MEAN_MOTION":"15.06397874","OBJECT_ID":"2020-055J","OBJECT_NAME":"STARLINK-1558","BSTAR":"0.00009010300000","NORAD_CAT_ID":"46035","ECCENTRICITY":"0.00012900","RCS_SIZE":"LARGE","MEAN_ANOMALY":"298.1865","EPOCH":"2022-05-13T20:59:38.298048","INCLINATION":"53.0546","SEMIMAJOR_AXIS":"6925.355","MEAN_MOTION_DDOT":"0.0000000000000","COUNTRY_CODE":"US","PERIOD":"95.592","GP_ID":"203476090","SITE":"AFETR","DECAY_DATE":null,"CLASSIFICATION_TYPE":"U","REV_AT_EPOCH":"9851","OBJECT_TYPE":"PAYLOAD","ELEMENT_SET_NO":"999"},{"MEAN_ELEMENT_THEORY":"SGP4","TLE_LINE2":"2 46036  53.0563 273.0368 0001330  71.8377 288.2756 15.06403388 98500","MEAN_MOTION_DOT":"0.00000407","CENTER_NAME":"EARTH","APOAPSIS":"548.124","ARG_OF_PERICENTER":"71.8377","TLE_LINE1":"1 46036U 20055K   22133.79365220  .00000407  00000-0  46208-4 0  9991","EPHEMERIS_TYPE":"0","FILE":"3444395","TIME_SYSTEM":"UTC","LAUNCH_DATE":"2020-08-07","REF_FRAME":"TEME","RA_OF_ASC_NODE":"273.0368","MEAN_MOTION":"15.06403388","OBJECT_NAME":"STARLINK-1560","OBJECT_ID":"2020-055K","PERIAPSIS":"546.282","ECCENTRICITY":"0.00013300","NORAD_CAT_ID":"46036","BSTAR":"0.00004620800000","MEAN_ANOMALY":"288.2756","EPOCH":"2022-05-13T19:02:51.550080","INCLINATION":"53.0563","SEMIMAJOR_AXIS":"6925.338","RCS_SIZE":"LARGE","DECAY_DATE":null,"CLASSIFICATION_TYPE":"U","OBJECT_TYPE":"PAYLOAD","REV_AT_EPOCH":"9850","ELEMENT_SET_NO":"999","COUNTRY_CODE":"US","MEAN_MOTION_DDOT":"0.0000000000000","GP_ID":"203474838","PERIOD":"95.592","SITE":"AFETR"},{"MEAN_ELEMENT_THEORY":"SGP4","CENTER_NAME":"EARTH","MEAN_MOTION_DOT":"0.00000166","TLE_LINE2":"2 46037  53.0547 273.0698 0001313  79.0153 281.0983 15.06405153 98495","FILE":"3444395","TLE_LINE1":"1 46037U 20055L   22133.78996862  .00000166  00000-0  30049-4 0  9991","ARG_OF_PERICENTER":"79.0153","EPHEMERIS_TYPE":"0","APOAPSIS":"548.107","RA_OF_ASC_NODE":"273.0698","TIME_SYSTEM":"UTC","LAUNCH_DATE":"2020-08-07","REF_FRAME":"TEME","PERIAPSIS":"546.288","OBJECT_NAME":"STARLINK-1565","OBJECT_ID":"2020-055L","MEAN_MOTION":"15.06405153","BSTAR":"0.00003004900000","ECCENTRICITY":"0.00013130","NORAD_CAT_ID":"46037","RCS_SIZE":"LARGE","INCLINATION":"53.0547","SEMIMAJOR_AXIS":"6925.333","MEAN_ANOMALY":"281.0983","EPOCH":"2022-05-13T18:57:33.288768","PERIOD":"95.592","GP_ID":"203475088","SITE":"AFETR","MEAN_MOTION_DDOT":"0.0000000000000","COUNTRY_CODE":"US","REV_AT_EPOCH":"9849","OBJECT_TYPE":"PAYLOAD","ELEMENT_SET_NO":"999","DECAY_DATE":null,"CLASSIFICATION_TYPE":"U"},{"SEMIMAJOR_AXIS":"6925.310","INCLINATION":"53.0525","EPOCH":"2022-05-13T19:18:47.103840","MEAN_ANOMALY":"282.4429","RCS_SIZE":"LARGE","ELEMENT_SET_NO":"999","OBJECT_TYPE":"PAYLOAD","REV_AT_EPOCH":"9798","CLASSIFICATION_TYPE":"U","DECAY_DATE":null,"SITE":"AFETR","GP_ID":"203449809","PERIOD":"95.591","COUNTRY_CODE":"US","MEAN_MOTION_DDOT":"0.0000000000000","OBJECT_ID":"2020-055M","OBJECT_NAME":"STARLINK-1567","MEAN_MOTION":"15.06412506","PERIAPSIS":"546.147","ECCENTRICITY":"0.00014850","NORAD_CAT_ID":"46038","BSTAR":"0.00025850000000","APOAPSIS":"548.204","FILE":"3444109","ARG_OF_PERICENTER":"77.6726","TLE_LINE1":"1 46038U 20055M   22133.80471185  .00003572  00000-0  25850-3 0  9998","EPHEMERIS_TYPE":"0","REF_FRAME":"TEME","TIME_SYSTEM":"UTC","LAUNCH_DATE":"2020-08-07","RA_OF_ASC_NODE":"272.9981","MEAN_ELEMENT_THEORY":"SGP4","TLE_LINE2":"2 46038  53.0525 272.9981 0001485  77.6726 282.4429 15.06412506 97988","MEAN_MOTION_DOT":"0.00003572","CENTER_NAME":"EARTH"},{"MEAN_ELEMENT_THEORY":"SGP4","MEAN_MOTION_DOT":"0.00002329","CENTER_NAME":"EARTH","TLE_LINE2":"2 46039  53.0534 273.5596 0001350  68.7146 291.3987 15.06400744 98470","FILE":"3444395","ARG_OF_PERICENTER":"68.7146","TLE_LINE1":"1 46039U 20055N   22133.67938887  .00002329  00000-0  17517-3 0  9991","EPHEMERIS_TYPE":"0","APOAPSIS":"548.146","RA_OF_ASC_NODE":"273.5596","REF_FRAME":"TEME","TIME_SYSTEM":"UTC","LAUNCH_DATE":"2020-08-07","PERIAPSIS":"546.276","OBJECT_ID":"2020-055N","OBJECT_NAME":"STARLINK-1569","MEAN_MOTION":"15.06400744","BSTAR":"0.00017517000000","ECCENTRICITY":"0.00013500","NORAD_CAT_ID":"46039","RCS_SIZE":"LARGE","SEMIMAJOR_AXIS":"6925.346","INCLINATION":"53.0534","EPOCH":"2022-05-13T16:18:19.198368","MEAN_ANOMALY":"291.3987","SITE":"AFETR","GP_ID":"203476590","PERIOD":"95.592","COUNTRY_CODE":"US","MEAN_MOTION_DDOT":"0.0000000000000","OBJECT_TYPE":"PAYLOAD","REV_AT_EPOCH":"9847","ELEMENT_SET_NO":"999","CLASSIFICATION_TYPE":"U","DECAY_DATE":null},{"MEAN_MOTION_DOT":"0.00000966","CENTER_NAME":"EARTH","TLE_LINE2":"2 46040  53.0534 273.1218 0001311  70.9011 289.2119 15.06400952 97981","MEAN_ELEMENT_THEORY":"SGP4","RA_OF_ASC_NODE":"273.1218","REF_FRAME":"TEME","LAUNCH_DATE":"2020-08-07","TIME_SYSTEM":"UTC","ARG_OF_PERICENTER":"70.9011","TLE_LINE1":"1 46040U 20055P   22133.77522582  .00000966  00000-0  83760-4 0  9994","EPHEMERIS_TYPE":"0","FILE":"3444110","APOAPSIS":"548.119","BSTAR":"0.00008376000000","ECCENTRICITY":"0.00013110","NORAD_CAT_ID":"46040","PERIAPSIS":"546.303","MEAN_MOTION":"15.06400952","OBJECT_NAME":"STARLINK-1576","OBJECT_ID":"2020-055P","MEAN_MOTION_DDOT":"0.0000000000000","COUNTRY_CODE":"US","SITE":"AFETR","PERIOD":"95.592","GP_ID":"203450139","CLASSIFICATION_TYPE":"U","DECAY_DATE":null,"REV_AT_EPOCH":"9798","OBJECT_TYPE":"PAYLOAD","ELEMENT_SET_NO":"999","RCS_SIZE":"LARGE","EPOCH":"2022-05-13T18:36:19.510848","MEAN_ANOMALY":"289.2119","SEMIMAJOR_AXIS":"6925.346","INCLINATION":"53.0534"}];
